OBJECT_NAME,OBJECT_ID,EPOCH,MEAN_MOTION,ECCENTRICITY,INCLINATION,RA_OF_ASC_NODE,ARG_OF_PERICENTER,MEAN_ANOMALY,EPHEMERIS_TYPE,CLASSIFICATION_TYPE,NORAD_CAT_ID,ELEMENT_SET_NO,REV_AT_EPOCH,BSTAR,MEAN_MOTION_DOT,MEAN_MOTION_DDOT
STARLINK-4114,2022-083AG,2024-07-28T12:11:22.769088,15.08843129,.0001421,53.2173,289.0683,93.7208,266.3947,0,U,53162,999,11304,.36925E-4,.3E-5,0
STARLINK-4104,2022-083AH,2024-07-27T13:44:00.792960,15.08817870,.0001164,53.2187,293.4049,78.2646,281.8477,0,U,53163,999,11290,.69856E-3,.1084E-3,0
STARLINK-4116,2022-083AJ,2024-07-28T03:57:10.997568,15.08844848,.0001292,53.2156,290.6035,86.9186,273.1954,0,U,53164,999,11299,.58476E-3,.9032E-4,0
STARLINK-4090,2022-083AK,2024-07-28T13:08:19.464000,15.08823043,.0001632,53.2159,288.8877,90.0538,270.0642,0,U,53165,999,11305,.94778E-3,.14821E-3,0
STARLINK-4110,2022-083AL,2024-07-28T13:18:54.489312,15.08802736,.0002183,53.2181,288.8444,115.9677,244.1540,0,U,53166,999,11305,.63853E-3,.9879E-4,0
STARLINK-3683,2022-083AM,2024-07-28T13:34:09.962112,15.08714053,.0002445,53.2167,273.7941,98.8864,261.2405,0,U,53167,999,11326,.17515E-2,.27601E-3,0
STARLINK-4105,2022-083AN,2024-07-28T11:38:13.196544,15.08836408,.0001419,53.2159,289.1648,96.2834,263.8320,0,U,53168,999,11304,-.23531E-5,-.325E-5,0
STARLINK-4117,2022-083AP,2024-07-28T11:26:59.882208,15.08838771,.0001385,53.2167,274.4595,94.2865,265.8286,0,U,53169,999,11324,.6101E-4,.683E-5,0
STARLINK-4095,2022-083AQ,2024-07-28T12:18:36.398592,15.08843646,.000129,53.2159,283.9947,93.7330,266.3809,0,U,53170,999,11311,.97936E-4,.1271E-4,0
STARLINK-4052,2022-083AR,2024-07-28T10:06:45.708768,15.08831317,.0001365,53.2161,259.2112,93.5617,266.5531,0,U,53171,999,11345,.39782E-4,.345E-5,0
STARLINK-4299,2022-083AS,2024-07-28T12:08:00.718368,15.08846128,.0001291,53.2164,283.9864,88.9204,271.1936,0,U,53172,999,11311,.54657E-4,.582E-5,0
STARLINK-4300,2022-083AT,2024-07-28T12:37:10.204320,15.08842671,.0001416,53.2162,263.9735,84.5504,275.5650,0,U,53173,999,11339,.12548E-3,.171E-4,0
STARLINK-4205,2022-083AU,2024-07-28T13:08:19.922784,15.08848396,.0001338,53.2165,298.8217,93.9804,266.1341,0,U,53174,999,11291,.16873E-4,-.19E-6,0
STARLINK-4292,2022-083AV,2024-07-28T13:12:16.549920,15.08822186,.0001145,53.2160,298.8691,84.6346,275.4776,0,U,53175,999,11291,-.11533E-3,-.2122E-4,0
STARLINK-4294,2022-083AW,2024-07-28T11:42:50.073984,15.08838907,.0001419,53.2164,274.0651,99.8886,260.2267,0,U,53176,999,11325,.74329E-4,.895E-5,0
STARLINK-4298,2022-083AX,2024-07-28T12:26:34.058400,15.08844346,.0001459,53.2169,264.0045,93.9836,266.1323,0,U,53177,999,11339,.75656E-4,.916E-5,0
STARLINK-4280,2022-083AY,2024-07-28T11:27:38.303424,15.08840320,.0001528,53.2190,289.1980,65.4724,294.6427,0,U,53178,999,11302,-.40451E-4,-.932E-5,0
STARLINK-4276,2022-083AZ,2024-07-28T12:52:20.404992,15.08851186,.0001468,53.2157,248.5327,83.1248,276.9911,0,U,53179,999,11361,-.23042E-4,-.655E-5,0
STARLINK-4258,2022-083BA,2024-07-27T20:00:14.165856,15.08843502,.0001569,53.2162,251.9623,87.7865,272.3307,0,U,53180,999,11350,.42736E-4,.392E-5,0
STARLINK-4273,2022-083BB,2024-07-28T09:33:36.163008,15.10724919,.0002208,53.2177,249.0961,32.5929,327.5200,0,U,53181,999,11359,.73889E-3,.12113E-3,0
STARLINK-4278,2022-083BC,2024-07-28T13:56:39.238080,15.08843526,.0001324,53.2156,263.7254,91.5686,268.5458,0,U,53182,999,11340,.55062E-4,.589E-5,0
STARLINK-4268,2022-083BD,2024-07-28T12:33:10.788192,15.08837109,.0001335,53.2160,253.9072,87.2579,272.8566,0,U,53183,999,11353,.46163E-4,.447E-5,0
STARLINK-4257,2022-083BE,2024-07-28T12:47:01.421376,15.08841929,.0001277,53.2156,248.5364,89.0203,271.0936,0,U,53184,999,11361,-.20865E-4,-.62E-5,0
STARLINK-4391,2022-084A,2024-07-28T17:07:00.520608,15.01256752,.0000381,97.6569,270.9520,73.7965,286.3301,0,U,53189,999,11133,.57115E-4,.675E-5,0
STARLINK-4332,2022-084B,2024-07-28T03:22:49.319904,15.01252532,.0003651,97.6558,270.3763,217.7968,142.3000,0,U,53190,999,11124,-.16366E-3,-.2161E-4,0
STARLINK-4369,2022-084C,2024-07-28T10:26:44.570976,15.01258172,.0001769,97.6545,270.6902,96.3286,263.8139,0,U,53191,999,11128,.30928E-5,-.19E-6,0
STARLINK-4375,2022-084D,2024-07-28T04:00:09.813600,15.01255233,.0001643,97.6525,270.4217,80.8316,279.3094,0,U,53192,999,11124,-.21414E-4,-.334E-5,0
STARLINK-4351,2022-084E,2024-07-28T16:55:59.862144,15.01255679,.0001797,97.6551,270.9574,91.9241,268.2189,0,U,53193,999,11133,.49067E-4,.571E-5,0
STARLINK-4382,2022-084F,2024-07-28T18:29:18.385152,15.01258076,.0001999,97.6535,271.0207,96.3035,263.8417,0,U,53194,999,11133,.36326E-3,.461E-4,0
STARLINK-4404,2022-084G,2024-07-28T03:46:49.340928,15.01256191,.0000722,97.6546,270.4215,99.4751,260.6555,0,U,53195,999,11124,-.95841E-4,-.129E-4,0
STARLINK-4407,2022-084H,2024-07-28T18:13:18.660864,15.01255993,.0001434,97.6543,271.0165,97.0168,263.1219,0,U,53196,999,11133,.84054E-4,.1021E-4,0
STARLINK-4403,2022-084J,2024-07-28T10:16:04.419552,15.01258082,.0001171,97.6545,270.6740,90.3020,269.8338,0,U,53197,999,11128,.10466E-3,.1285E-4,0
STARLINK-4385,2022-084K,2024-07-28T03:57:29.834496,15.01256959,.0001405,97.6533,270.4188,90.5314,269.6071,0,U,53198,999,11124,-.32599E-4,-.478E-5,0
STARLINK-4395,2022-084L,2024-07-28T10:18:44.625024,15.01261448,.0001249,97.6524,270.6682,93.0273,267.1094,0,U,53199,999,11128,-.28602E-4,-.426E-5,0
STARLINK-4417,2022-084M,2024-07-28T10:13:46.051680,15.01256375,.0002397,97.6519,270.6770,101.7972,258.3521,0,U,53200,999,11128,-.79767E-4,-.1083E-4,0
STARLINK-4405,2022-084N,2024-07-28T18:00:19.614528,15.01248786,.0002039,97.6548,270.9976,246.3352,113.7658,0,U,53201,999,11133,.41208E-3,.5236E-4,0
STARLINK-4411,2022-084P,2024-07-28T18:07:59.627136,15.01213845,.0000599,97.6551,271.0009,87.5741,272.5552,0,U,53202,999,11133,.81909E-3,.10464E-3,0
STARLINK-4409,2022-084Q,2024-07-28T18:02:38.935392,15.01237093,.000088,97.6554,270.9873,240.1707,119.9430,0,U,53203,999,11133,.35119E-3,.4452E-4,0
STARLINK-4410,2022-084R,2024-07-28T03:44:29.727168,15.01263954,.0000563,97.6563,270.4061,119.4008,240.7272,0,U,53204,999,11124,.82771E-4,.1004E-4,0
STARLINK-4397,2022-084S,2024-07-28T17:57:21.568320,15.01153247,.0002199,97.6558,270.9828,240.2950,119.8056,0,U,53205,999,11133,.19877E-2,.25493E-3,0
STARLINK-4408,2022-084T,2024-07-28T17:41:17.462688,15.01282890,.0003492,97.6561,271.0062,192.4022,167.7117,0,U,53206,999,11133,.37479E-4,.423E-5,0
STARLINK-4413,2022-084U,2024-07-28T17:54:40.296672,15.01181370,.0002841,97.6556,270.9806,224.6570,135.4426,0,U,53207,999,11133,.13818E-2,.17698E-3,0
STARLINK-4425,2022-084V,2024-07-28T03:41:29.352480,15.01258053,.0000489,97.6552,270.3992,193.0076,167.1136,0,U,53208,999,11124,-.30043E-4,-.445E-5,0
STARLINK-4423,2022-084W,2024-07-28T17:52:21.048384,15.01206820,.0003162,97.6549,270.9790,227.6010,132.4947,0,U,53209,999,11133,.10465E-2,.1339E-3,0
STARLINK-4427,2022-084X,2024-07-28T17:59:57.629184,15.01272687,.0003237,97.6537,270.9812,244.2046,115.8844,0,U,53210,999,11133,.19331E-3,.2426E-4,0
STARLINK-4419,2022-084Y,2024-07-28T03:20:30.332544,15.01249172,.0003895,97.6552,270.3858,207.3978,152.7041,0,U,53211,999,11124,.10761E-3,.1323E-4,0
STARLINK-4416,2022-084Z,2024-07-28T17:51:59.292000,15.01235739,.0003735,97.6551,270.9795,219.0509,141.0446,0,U,53212,999,11133,.90225E-3,.11542E-3,0
STARLINK-4414,2022-084AA,2024-07-28T03:14:49.792128,15.01261547,.0003466,97.6560,270.3775,165.9373,194.1949,0,U,53213,999,11124,.469E-4,.543E-5,0
STARLINK-4353,2022-084AB,2024-07-28T17:49:18.897312,15.01235624,.0003331,97.6559,270.9760,202.2152,157.8929,0,U,53214,999,11133,.40734E-3,.5174E-4,0
STARLINK-4335,2022-084AC,2024-07-28T03:12:10.222560,15.01256121,.0003112,97.6539,270.3722,164.3386,195.7935,0,U,53215,999,11124,-.16207E-4,-.267E-5,0
STARLINK-4376,2022-084AD,2024-07-28T03:20:09.630240,15.01243452,.0004396,97.6552,270.3811,196.2993,163.8090,0,U,53216,999,11124,-.34391E-3,-.4473E-4,0
STARLINK-4379,2022-084AE,2024-07-28T17:19:58.893024,15.01256550,.0000714,97.6564,270.9868,76.9468,283.1836,0,U,53217,999,11133,-.15643E-4,-.26E-5,0
STARLINK-4384,2022-084AF,2024-07-28T02:59:10.646592,15.01254487,.0001197,97.6583,270.4063,176.9260,183.1972,0,U,53218,999,11087,-.12161E-3,-.162E-4,0
STARLINK-4373,2022-084AG,2024-07-28T03:01:30.268128,15.01255771,.0000443,97.6587,270.3782,125.7372,234.3893,0,U,53219,999,11087,-.37719E-4,-.543E-5,0
STARLINK-4363,2022-084AH,2024-07-28T03:09:30.131136,15.01256465,.000198,97.6564,270.3756,168.4424,191.6846,0,U,53220,999,11087,-.59954E-4,-.829E-5,0
STARLINK-4377,2022-084AJ,2024-07-28T02:58:50.219040,15.01258405,.0000712,97.6583,270.3795,86.7186,273.4120,0,U,53221,999,11086,.22823E-4,.234E-5,0
STARLINK-4381,2022-084AK,2024-07-28T17:30:38.741184,15.01261044,.000185,97.6560,270.9665,159.0211,201.1089,0,U,53222,999,11133,.45898E-4,.531E-5,0
STARLINK-4354,2022-084AL,2024-07-28T04:43:10.395840,15.01258219,.0002913,97.6560,270.4236,135.1083,225.0378,0,U,53223,999,11087,.85959E-4,.1045E-4,0
STARLINK-4356,2022-084AM,2024-07-28T03:04:09.920640,15.01260087,.0001816,97.6576,270.3754,160.2145,199.9150,0,U,53224,999,11087,.38897E-4,.441E-5,0
STARLINK-4358,2022-084AN,2024-07-28T17:14:38.901120,15.01267503,.0000287,97.6569,270.9675,277.9164,82.2028,0,U,53225,999,11095,-.77176E-4,-.105E-4,0
STARLINK-4359,2022-084AP,2024-07-28T04:24:08.643168,15.01256508,.0000381,97.6572,270.4557,189.4394,170.6823,0,U,53226,999,11088,-.42671E-4,-.607E-5,0
STARLINK-4366,2022-084AQ,2024-07-28T10:34:44.228352,15.01261656,.0001749,97.6553,270.7139,95.3269,264.8155,0,U,53227,999,11091,.18165E-4,.174E-5,0
STARLINK-4365,2022-084AR,2024-07-28T17:17:19.084992,15.01258306,.0000342,97.6575,270.9700,128.0367,232.0888,0,U,53228,999,11095,.23113E-4,.238E-5,0
STARLINK-4367,2022-084AS,2024-07-28T04:21:29.133216,15.01255671,.0000382,97.6577,270.4413,197.3779,162.7432,0,U,53229,999,11087,-.15545E-4,-.259E-5,0
STARLINK-4364,2022-084AT,2024-07-28T17:15:00.369792,15.01266593,.000033,97.6571,270.9627,261.2447,98.8740,0,U,53230,999,11133,.52692E-4,.618E-5,0
STARLINK-4370,2022-084AU,2024-07-28T04:16:09.182784,15.01271729,.0002448,97.6537,270.4375,103.7874,256.3623,0,U,53231,999,11087,-.9489E-4,-.1278E-4,0
